CCSDS_OMM_VERS = 2.0
CREATION_DATE  = 
ORIGINATOR     = 

OBJECT_NAME    = STARLINK-36704
OBJECT_ID      = 2026-025E
CENTER_NAME    = EARTH
REF_FRAME      = TEME
TIME_SYSTEM    = UTC
MEAN_ELEMENT_THEORY = SGP/SGP4

EPOCH          = 2026-02-22T04:00:01.999584
MEAN_MOTION    = 15.80802318
ECCENTRICITY   = .0001152
INCLINATION    = 97.2764
RA_OF_ASC_NODE = 163.9380
ARG_OF_PERICENTER = 54.3922
MEAN_ANOMALY   = 311.2139

EPHEMERIS_TYPE = 0
CLASSIFICATION_TYPE = U
NORAD_CAT_ID   = 67697
ELEMENT_SET_NO = 999
REV_AT_EPOCH   = 335
BSTAR          = .26675E-3
MEAN_MOTION_DOT = .51221E-3
MEAN_MOTION_DDOT = 0

CCSDS_OMM_VERS = 2.0
CREATION_DATE  = 
ORIGINATOR     = 

OBJECT_NAME    = STARLINK-36697
OBJECT_ID      = 2026-025F
CENTER_NAME    = EARTH
REF_FRAME      = TEME
TIME_SYSTEM    = UTC
MEAN_ELEMENT_THEORY = SGP/SGP4

EPOCH          = 2026-02-22T04:00:01.999584
MEAN_MOTION    = 15.80702272
ECCENTRICITY   = .0001402
INCLINATION    = 97.2765
RA_OF_ASC_NODE = 163.9409
ARG_OF_PERICENTER = 97.4781
MEAN_ANOMALY   = 275.6417

EPHEMERIS_TYPE = 0
CLASSIFICATION_TYPE = U
NORAD_CAT_ID   = 67698
ELEMENT_SET_NO = 999
REV_AT_EPOCH   = 330
BSTAR          = .88947E-3
MEAN_MOTION_DOT = .17275E-2
MEAN_MOTION_DDOT = 0

CCSDS_OMM_VERS = 2.0
CREATION_DATE  = 
ORIGINATOR     = 

OBJECT_NAME    = STARLINK-36716
OBJECT_ID      = 2026-025G
CENTER_NAME    = EARTH
REF_FRAME      = TEME
TIME_SYSTEM    = UTC
MEAN_ELEMENT_THEORY = SGP/SGP4

EPOCH          = 2026-02-22T04:00:01.999584
MEAN_MOTION    = 15.80901314
ECCENTRICITY   = .0001697
INCLINATION    = 97.2758
RA_OF_ASC_NODE = 163.9448
ARG_OF_PERICENTER = 84.7323
MEAN_ANOMALY   = 298.1642

EPHEMERIS_TYPE = 0
CLASSIFICATION_TYPE = U
NORAD_CAT_ID   = 67699
ELEMENT_SET_NO = 999
REV_AT_EPOCH   = 351
BSTAR          = -.75602E-3
MEAN_MOTION_DOT = -.143174E-2
MEAN_MOTION_DDOT = 0

CCSDS_OMM_VERS = 2.0
CREATION_DATE  = 
ORIGINATOR     = 

OBJECT_NAME    = STARLINK-36712
OBJECT_ID      = 2026-025H
CENTER_NAME    = EARTH
REF_FRAME      = TEME
TIME_SYSTEM    = UTC
MEAN_ELEMENT_THEORY = SGP/SGP4

EPOCH          = 2026-02-22T04:00:01.999584
MEAN_MOTION    = 15.81165086
ECCENTRICITY   = .0001325
INCLINATION    = 97.2756
RA_OF_ASC_NODE = 163.9492
ARG_OF_PERICENTER = 94.9144
MEAN_ANOMALY   = 297.4705

EPHEMERIS_TYPE = 0
CLASSIFICATION_TYPE = U
NORAD_CAT_ID   = 67700
ELEMENT_SET_NO = 999
REV_AT_EPOCH   = 330
BSTAR          = -.29795E-2
MEAN_MOTION_DOT = -.545318E-2
MEAN_MOTION_DDOT = 0

CCSDS_OMM_VERS = 2.0
CREATION_DATE  = 
ORIGINATOR     = 

OBJECT_NAME    = STARLINK-36713
OBJECT_ID      = 2026-025J
CENTER_NAME    = EARTH
REF_FRAME      = TEME
TIME_SYSTEM    = UTC
MEAN_ELEMENT_THEORY = SGP/SGP4

EPOCH          = 2026-02-22T04:00:01.999584
MEAN_MOTION    = 15.81635505
ECCENTRICITY   = .0001016
INCLINATION    = 97.2746
RA_OF_ASC_NODE = 163.9526
ARG_OF_PERICENTER = 68.0573
MEAN_ANOMALY   = 333.7257

EPHEMERIS_TYPE = 0
CLASSIFICATION_TYPE = U
NORAD_CAT_ID   = 67701
ELEMENT_SET_NO = 999
REV_AT_EPOCH   = 351
BSTAR          = -.63053E-2
MEAN_MOTION_DOT = -.1124887E-1
MEAN_MOTION_DDOT = 0

CCSDS_OMM_VERS = 2.0
CREATION_DATE  = 
ORIGINATOR     = 

OBJECT_NAME    = STARLINK-36695
OBJECT_ID      = 2026-025K
CENTER_NAME    = EARTH
REF_FRAME      = TEME
TIME_SYSTEM    = UTC
MEAN_ELEMENT_THEORY = SGP/SGP4

EPOCH          = 2026-02-22T04:00:01.999584
MEAN_MOTION    = 15.81956600
ECCENTRICITY   = .0001582
INCLINATION    = 97.2743
RA_OF_ASC_NODE = 163.9558
ARG_OF_PERICENTER = 58.0133
MEAN_ANOMALY   = 351.5667

EPHEMERIS_TYPE = 0
CLASSIFICATION_TYPE = U
NORAD_CAT_ID   = 67702
ELEMENT_SET_NO = 999
REV_AT_EPOCH   = 335
BSTAR          = -.74166E-2
MEAN_MOTION_DOT = -.1317264E-1
MEAN_MOTION_DDOT = 0

CCSDS_OMM_VERS = 2.0
CREATION_DATE  = 
ORIGINATOR     = 

OBJECT_NAME    = STARLINK-36630
OBJECT_ID      = 2026-025L
CENTER_NAME    = EARTH
REF_FRAME      = TEME
TIME_SYSTEM    = UTC
MEAN_ELEMENT_THEORY = SGP/SGP4

EPOCH          = 2026-02-22T04:00:01.999584
MEAN_MOTION    = 15.82275731
ECCENTRICITY   = .0001481
INCLINATION    = 97.2739
RA_OF_ASC_NODE = 163.9589
ARG_OF_PERICENTER = 51.1016
MEAN_ANOMALY   = 6.0098

EPHEMERIS_TYPE = 0
CLASSIFICATION_TYPE = U
NORAD_CAT_ID   = 67703
ELEMENT_SET_NO = 999
REV_AT_EPOCH   = 335
BSTAR          = -.83925E-2
MEAN_MOTION_DOT = -.1517313E-1
MEAN_MOTION_DDOT = 0

CCSDS_OMM_VERS = 2.0
CREATION_DATE  = 
ORIGINATOR     = 

OBJECT_NAME    = STARLINK-36338
OBJECT_ID      = 2026-025M
CENTER_NAME    = EARTH
REF_FRAME      = TEME
TIME_SYSTEM    = UTC
MEAN_ELEMENT_THEORY = SGP/SGP4

EPOCH          = 2026-02-22T04:00:01.999584
MEAN_MOTION    = 15.82659138
ECCENTRICITY   = .0001433
INCLINATION    = 97.2733
RA_OF_ASC_NODE = 163.9631
ARG_OF_PERICENTER = 64.3336
MEAN_ANOMALY   = 2.8462

EPHEMERIS_TYPE = 0
CLASSIFICATION_TYPE = U
NORAD_CAT_ID   = 67704
ELEMENT_SET_NO = 999
REV_AT_EPOCH   = 340
BSTAR          = -.88937E-2
MEAN_MOTION_DOT = -.1621899E-1
MEAN_MOTION_DDOT = 0

CCSDS_OMM_VERS = 2.0
CREATION_DATE  = 
ORIGINATOR     = 

OBJECT_NAME    = STARLINK-36316
OBJECT_ID      = 2026-025N
CENTER_NAME    = EARTH
REF_FRAME      = TEME
TIME_SYSTEM    = UTC
MEAN_ELEMENT_THEORY = SGP/SGP4

EPOCH          = 2026-02-22T04:00:01.999584
MEAN_MOTION    = 15.83287322
ECCENTRICITY   = .0001828
INCLINATION    = 97.2722
RA_OF_ASC_NODE = 163.9711
ARG_OF_PERICENTER = 60.0773
MEAN_ANOMALY   = 27.4332

EPHEMERIS_TYPE = 0
CLASSIFICATION_TYPE = U
NORAD_CAT_ID   = 67705
ELEMENT_SET_NO = 999
REV_AT_EPOCH   = 340
BSTAR          = -.82978E-2
MEAN_MOTION_DOT = -.1566946E-1
MEAN_MOTION_DDOT = 0

CCSDS_OMM_VERS = 2.0
CREATION_DATE  = 
ORIGINATOR     = 

OBJECT_NAME    = STARLINK-36707
OBJECT_ID      = 2026-025P
CENTER_NAME    = EARTH
REF_FRAME      = TEME
TIME_SYSTEM    = UTC
MEAN_ELEMENT_THEORY = SGP/SGP4

EPOCH          = 2026-02-22T04:00:01.999584
MEAN_MOTION    = 15.83637857
ECCENTRICITY   = .0001793
INCLINATION    = 97.2715
RA_OF_ASC_NODE = 163.9754
ARG_OF_PERICENTER = 57.4413
MEAN_ANOMALY   = 40.6637

EPHEMERIS_TYPE = 0
CLASSIFICATION_TYPE = U
NORAD_CAT_ID   = 67706
ELEMENT_SET_NO = 999
REV_AT_EPOCH   = 319
BSTAR          = -.81611E-2
MEAN_MOTION_DOT = -.1566969E-1
MEAN_MOTION_DDOT = 0

CCSDS_OMM_VERS = 2.0
CREATION_DATE  = 
ORIGINATOR     = 

OBJECT_NAME    = STARLINK-36645
OBJECT_ID      = 2026-025Q
CENTER_NAME    = EARTH
REF_FRAME      = TEME
TIME_SYSTEM    = UTC
MEAN_ELEMENT_THEORY = SGP/SGP4

EPOCH          = 2026-02-22T04:00:01.999584
MEAN_MOTION    = 15.83013763
ECCENTRICITY   = .0001546
INCLINATION    = 97.2724
RA_OF_ASC_NODE = 163.9667
ARG_OF_PERICENTER = 63.4215
MEAN_ANOMALY   = 15.4320

EPHEMERIS_TYPE = 0
CLASSIFICATION_TYPE = U
NORAD_CAT_ID   = 67707
ELEMENT_SET_NO = 999
REV_AT_EPOCH   = 296
BSTAR          = -.84845E-2
MEAN_MOTION_DOT = -.1579521E-1
MEAN_MOTION_DDOT = 0

CCSDS_OMM_VERS = 2.0
CREATION_DATE  = 
ORIGINATOR     = 

OBJECT_NAME    = STARLINK-36287
OBJECT_ID      = 2026-025R
CENTER_NAME    = EARTH
REF_FRAME      = TEME
TIME_SYSTEM    = UTC
MEAN_ELEMENT_THEORY = SGP/SGP4

EPOCH          = 2026-02-22T04:00:01.999584
MEAN_MOTION    = 15.83942554
ECCENTRICITY   = .0001582
INCLINATION    = 97.2711
RA_OF_ASC_NODE = 163.9783
ARG_OF_PERICENTER = 68.9634
MEAN_ANOMALY   = 38.2774

EPHEMERIS_TYPE = 0
CLASSIFICATION_TYPE = U
NORAD_CAT_ID   = 67708
ELEMENT_SET_NO = 999
REV_AT_EPOCH   = 351
BSTAR          = -.80367E-2
MEAN_MOTION_DOT = -.1565649E-1
MEAN_MOTION_DDOT = 0

