STARLINK-36704          
1 67697U 26025E   26053.16668981  .00051221  00000+0  26675-3 0  9990
2 67697  97.2764 163.9380 0001152  54.3922 311.2139 15.80802318  3353
STARLINK-36697          
1 67698U 26025F   26053.16668981  .00172750  00000+0  88947-3 0  9992
2 67698  97.2765 163.9409 0001402  97.4781 275.6417 15.80702272  3301
STARLINK-36716          
1 67699U 26025G   26053.16668981 -.00143174  00000+0 -75602-3 0  9997
2 67699  97.2758 163.9448 0001697  84.7323 298.1642 15.80901314  3515
STARLINK-36712          
1 67700U 26025H   26053.16668981 -.00545318  00000+0 -29795-2 0  9997
2 67700  97.2756 163.9492 0001325  94.9144 297.4705 15.81165086  3305
STARLINK-36713          
1 67701U 26025J   26053.16668981 -.01124887  00000+0 -63053-2 0  9998
2 67701  97.2746 163.9526 0001016  68.0573 333.7257 15.81635505  3515
STARLINK-36695          
1 67702U 26025K   26053.16668981 -.01317264  00000+0 -74166-2 0  9999
2 67702  97.2743 163.9558 0001582  58.0133 351.5667 15.81956600  3354
STARLINK-36630          
1 67703U 26025L   26053.16668981 -.01517313  00000+0 -83925-2 0  9990
2 67703  97.2739 163.9589 0001481  51.1016   6.0098 15.82275731  3356
STARLINK-36338          
1 67704U 26025M   26053.16668981 -.01621899  00000+0 -88937-2 0  9994
2 67704  97.2733 163.9631 0001433  64.3336   2.8462 15.82659138  3409
STARLINK-36316          
1 67705U 26025N   26053.16668981 -.01566946  00000+0 -82978-2 0  9995
2 67705  97.2722 163.9711 0001828  60.0773  27.4332 15.83287322  3405
STARLINK-36707          
1 67706U 26025P   26053.16668981 -.01566969  00000+0 -81611-2 0  9994
2 67706  97.2715 163.9754 0001793  57.4413  40.6637 15.83637857  3190
STARLINK-36645          
1 67707U 26025Q   26053.16668981 -.01579521  00000+0 -84845-2 0  9995
2 67707  97.2724 163.9667 0001546  63.4215  15.4320 15.83013763  2964
STARLINK-36287          
1 67708U 26025R   26053.16668981 -.01565649  00000+0 -80367-2 0  9997
2 67708  97.2711 163.9783 0001582  68.9634  38.2774 15.83942554  3512
